[
    {
        "Altitude(m)": 714396.3734910502,
        "Argument of Periapsis(deg)": 0.007973084830638947,
        "Eccentricity": 0.0,
        "Inclination(deg)": 45.0,
        "Latitude(deg)": -36.72511170857147,
        "Longitude(deg)": -168.4393601098991,
        "Mean Anomaly(deg)": -57.38124834676335,
        "RAAN(deg)": 339.9924736409793,
        "Satellite Name": "Constellation 1 1514",
        "Satellite Number": 1514,
        "Semi-Major Axis(m)": 7083131.272910544,
        "Time(s)": 133
    },
    {
        "Altitude(m)": 714384.5533874517,
        "Argument of Periapsis(deg)": 0.008033032836884352,
        "Eccentricity": 0.0,
        "Inclination(deg)": 45.0,
        "Latitude(deg)": -36.69628963431807,
        "Longitude(deg)": -168.37709246500575,
        "Mean Anomaly(deg)": -57.32054720651352,
        "RAAN(deg)": 339.9924170518137,
        "Satellite Name": "Constellation 1 1514",
        "Satellite Number": 1514,
        "Semi-Major Axis(m)": 7083131.272910544,
        "Time(s)": 134
    },
    {
        "Altitude(m)": 714372.7196552483,
        "Argument of Periapsis(deg)": 0.008092980843129758,
        "Eccentricity": 0.0,
        "Inclination(deg)": 45.0,
        "Latitude(deg)": -36.6674304050266,
        "Longitude(deg)": -168.31487424051082,
        "Mean Anomaly(deg)": -57.25984606626368,
        "RAAN(deg)": 339.99236046264815,
        "Satellite Name": "Constellation 1 1514",
        "Satellite Number": 1514,
        "Semi-Major Axis(m)": 7083131.272910544,
        "Time(s)": 135
    },
    {
        "Altitude(m)": 714360.8723371566,
        "Argument of Periapsis(deg)": 0.008152928849375162,
        "Eccentricity": 0.0,
        "Inclination(deg)": 45.0,
        "Latitude(deg)": -36.63853408624791,
        "Longitude(deg)": -168.25270541090805,
        "Mean Anomaly(deg)": -57.199144926013645,
        "RAAN(deg)": 339.99230387348257,
        "Satellite Name": "Constellation 1 1514",
        "Satellite Number": 1514,
        "Semi-Major Axis(m)": 7083131.272910544,
        "Time(s)": 136
    },
    {
        "Altitude(m)": 714349.011475939,
        "Argument of Periapsis(deg)": 0.008212876855620568,
        "Eccentricity": 0.0,
        "Inclination(deg)": 45.0,
        "Latitude(deg)": -36.60960074348306,
        "Longitude(deg)": -168.19058595042006,
        "Mean Anomaly(deg)": -57.1384437857638,
        "RAAN(deg)": 339.992247284317,
        "Satellite Name": "Constellation 1 1514",
        "Satellite Number": 1514,
        "Semi-Major Axis(m)": 7083131.272910544,
        "Time(s)": 137
    },
    {
        "Altitude(m)": 714337.1371143982,
        "Argument of Periapsis(deg)": 0.008272824861865974,
        "Eccentricity": 0.0,
        "Inclination(deg)": 45.0,
        "Latitude(deg)": -36.58063044218281,
        "Longitude(deg)": -168.12851583299917,
        "Mean Anomaly(deg)": -57.077742645513965,
        "RAAN(deg)": 339.9921906951514,
        "Satellite Name": "Constellation 1 1514",
        "Satellite Number": 1514,
        "Semi-Major Axis(m)": 7083131.272910544,
        "Time(s)": 138
    },
    {
        "Altitude(m)": 714325.2492953903,
        "Argument of Periapsis(deg)": 0.00833277286811138,
        "Eccentricity": 0.0,
        "Inclination(deg)": 45.0,
        "Latitude(deg)": -36.55162324774744,
        "Longitude(deg)": -168.06649503232882,
        "Mean Anomaly(deg)": -57.01704150526398,
        "RAAN(deg)": 339.9921341059859,
        "Satellite Name": "Constellation 1 1514",
        "Satellite Number": 1514,
        "Semi-Major Axis(m)": 7083131.272910544,
        "Time(s)": 139
    },
    {
        "Altitude(m)": 714313.3480618004,
        "Argument of Periapsis(deg)": 0.008392720874356788,
        "Eccentricity": 0.0,
        "Inclination(deg)": 45.0,
        "Latitude(deg)": -36.522579225526556,
        "Longitude(deg)": -168.00452352182535,
        "Mean Anomaly(deg)": -56.95634036501404,
        "RAAN(deg)": 339.9920775168203,
        "Satellite Name": "Constellation 1 1514",
        "Satellite Number": 1514,
        "Semi-Major Axis(m)": 7083131.272910544,
        "Time(s)": 140
    },
    {
        "Altitude(m)": 714301.4334565721,
        "Argument of Periapsis(deg)": 0.008452668880602192,
        "Eccentricity": 0.0,
        "Inclination(deg)": 45.0,
        "Latitude(deg)": -36.493498440818385,
        "Longitude(deg)": -167.9426014427362,
        "Mean Anomaly(deg)": -56.89563922476421,
        "RAAN(deg)": 339.9920209276547,
        "Satellite Name": "Constellation 1 1514",
        "Satellite Number": 1514,
        "Semi-Major Axis(m)": 7083131.272910544,
        "Time(s)": 141
    },
    {
        "Altitude(m)": 714289.5055226844,
        "Argument of Periapsis(deg)": 0.008512616886847598,
        "Eccentricity": 0.0,
        "Inclination(deg)": 45.0,
        "Latitude(deg)": -36.464380958870684,
        "Longitude(deg)": -167.88072843175283,
        "Mean Anomaly(deg)": -56.83493808451432,
        "RAAN(deg)": 339.99196433848914,
        "Satellite Name": "Constellation 1 1514",
        "Satellite Number": 1514,
        "Semi-Major Axis(m)": 7083131.272910544,
        "Time(s)": 142
    },
    {
        "Altitude(m)": 714277.5643031667,
        "Argument of Periapsis(deg)": 0.008572564893093004,
        "Eccentricity": 0.0,
        "Inclination(deg)": 45.0,
        "Latitude(deg)": -36.43522684487875,
        "Longitude(deg)": -167.8189046295945,
        "Mean Anomaly(deg)": -56.77423694426444,
        "RAAN(deg)": 339.99190774932356,
        "Satellite Name": "Constellation 1 1514",
        "Satellite Number": 1514,
        "Semi-Major Axis(m)": 7083131.272910544,
        "Time(s)": 143
    },
    {
        "Altitude(m)": 714265.609841087,
        "Argument of Periapsis(deg)": 0.008632512899338408,
        "Eccentricity": 0.0,
        "Inclination(deg)": 45.0,
        "Latitude(deg)": -36.40603616398622,
        "Longitude(deg)": -167.75713000862143,
        "Mean Anomaly(deg)": -56.71353580401449,
        "RAAN(deg)": 339.99185116015803,
        "Satellite Name": "Constellation 1 1514",
        "Satellite Number": 1514,
        "Semi-Major Axis(m)": 7083131.272910544,
        "Time(s)": 144
    },
    {
        "Altitude(m)": 714253.6421795567,
        "Argument of Periapsis(deg)": 0.008692460905583814,
        "Eccentricity": 0.0,
        "Inclination(deg)": 45.0,
        "Latitude(deg)": -36.3768089812847,
        "Longitude(deg)": -167.6954045409335,
        "Mean Anomaly(deg)": -56.65283466376466,
        "RAAN(deg)": 339.99179457099245,
        "Satellite Name": "Constellation 1 1514",
        "Satellite Number": 1514,
        "Semi-Major Axis(m)": 7083131.272910544,
        "Time(s)": 145
    },
    {
        "Altitude(m)": 714241.6613617328,
        "Argument of Periapsis(deg)": 0.00875240891182922,
        "Eccentricity": 0.0,
        "Inclination(deg)": 45.0,
        "Latitude(deg)": -36.34754536181316,
        "Longitude(deg)": -167.63372819837107,
        "Mean Anomaly(deg)": -56.592133523514676,
        "RAAN(deg)": 339.9917379818269,
        "Satellite Name": "Constellation 1 1514",
        "Satellite Number": 1514,
        "Semi-Major Axis(m)": 7083131.272910544,
        "Time(s)": 146
    },
    {
        "Altitude(m)": 714229.6674308149,
        "Argument of Periapsis(deg)": 0.008812356918074627,
        "Eccentricity": 0.0,
        "Inclination(deg)": 45.0,
        "Latitude(deg)": -36.318245370558124,
        "Longitude(deg)": -167.57210095251702,
        "Mean Anomaly(deg)": -56.531432383264885,
        "RAAN(deg)": 339.9916813926613,
        "Satellite Name": "Constellation 1 1514",
        "Satellite Number": 1514,
        "Semi-Major Axis(m)": 7083131.272910544,
        "Time(s)": 147
    },
    {
        "Altitude(m)": 714217.660430042,
        "Argument of Periapsis(deg)": 0.008872304924320031,
        "Eccentricity": 0.0,
        "Inclination(deg)": 45.0,
        "Latitude(deg)": -36.288909072452554,
        "Longitude(deg)": -167.51052294279384,
        "Mean Anomaly(deg)": -56.47073124301495,
        "RAAN(deg)": 339.9916248034957,
        "Satellite Name": "Constellation 1 1514",
        "Satellite Number": 1514,
        "Semi-Major Axis(m)": 7083131.272910544,
        "Time(s)": 148
    },
    {
        "Altitude(m)": 714205.6404026989,
        "Argument of Periapsis(deg)": 0.008932252930565437,
        "Eccentricity": 0.0,
        "Inclination(deg)": 45.0,
        "Latitude(deg)": -36.25953653237724,
        "Longitude(deg)": -167.44899380407833,
        "Mean Anomaly(deg)": -56.410030102765006,
        "RAAN(deg)": 339.9915682143302,
        "Satellite Name": "Constellation 1 1514",
        "Satellite Number": 1514,
        "Semi-Major Axis(m)": 7083131.272910544,
        "Time(s)": 149
    },
    {
        "Altitude(m)": 714193.6073921181,
        "Argument of Periapsis(deg)": 0.008992200936810843,
        "Eccentricity": 0.0,
        "Inclination(deg)": 45.0,
        "Latitude(deg)": -36.23012781515858,
        "Longitude(deg)": -167.38751367528445,
        "Mean Anomaly(deg)": -56.34932896251513,
        "RAAN(deg)": 339.9915116251646,
        "Satellite Name": "Constellation 1 1514",
        "Satellite Number": 1514,
        "Semi-Major Axis(m)": 7083131.272910544,
        "Time(s)": 150
    },
    {
        "Altitude(m)": 714181.561441657,
        "Argument of Periapsis(deg)": 0.009052148943056249,
        "Eccentricity": 0.0,
        "Inclination(deg)": 45.0,
        "Latitude(deg)": -36.20068298556943,
        "Longitude(deg)": -167.32608252697622,
        "Mean Anomaly(deg)": -56.2886278222653,
        "RAAN(deg)": 339.991455035999,
        "Satellite Name": "Constellation 1 1514",
        "Satellite Number": 1514,
        "Semi-Major Axis(m)": 7083131.272910544,
        "Time(s)": 151
    }
]